1 34106U 97051DR  24122.11211869  .00024989  00000-0  38917-2 0  9998
2 34106  86.3543 246.3718 0012094 162.1627  12.3991 14.72799342803786
1 34106U 97051DR  24121.83019418  .00022965  00000-0  35783-2 0  9992
2 34106  86.3543 246.4983 0012069 162.9906 317.7719 14.72787535803614
1 34106U 97051DR  24121.60560117  .00020674  00000-0  32227-2 0  9999
2 34106  86.3543 246.5992 0012073 163.5325 207.2159 14.72777414803584
1 34106U 97051DR  24121.09279073  .00020003  00000-0  31197-2 0  9991
2 34106  86.3542 246.8298 0012067 165.1541   8.4736 14.72758824803638
1 34106U 97051DR  24120.81860313  .00021939  00000-0  34217-2 0  9998
2 34106  86.3546 246.9531 0012036 165.8976 354.9635 14.72749875803462
1 34106U 97051DR  24120.39146280  .00019979  00000-0  31182-2 0  9990
2 34106  86.3548 247.1452 0012005 167.5293 250.1714 14.72728123803408
1 34106U 97051DR  24119.86169046  .00026363  00000-0  41140-2 0  9995
2 34106  86.3548 247.3831 0011943 168.6457 322.1551 14.72706163803325
1 34106U 97051DR  24119.86169046  .00026363  00000-0  41140-2 0  9995
2 34106  86.3548 247.3831 0011943 168.6457 322.1551 14.72706163803459
1 34106U 97051DR  24119.63533740  .00029021  00000-0  45287-2 0  9996
2 34106  86.3551 247.4851 0011962 169.0043 202.5205 14.72693357803292
1 34106U 97051DR  24118.84170116  .00038596  00000-0  60228-2 0  9991
2 34106  86.3554 247.8414 0011913 171.5871 315.1349 14.72642181803173
1 34106U 97051DR  24118.84170116  .00038596  00000-0  60228-2 0  9991
2 34106  86.3554 247.8414 0011913 171.5871 315.1349 14.72642181803308
1 34106U 97051DR  24118.42362654  .00049398  00000-0  77027-2 0  9992
2 34106  86.3552 248.0297 0011886 173.1432 258.6237 14.72612027803110
1 34106U 97051DR  24118.10310769  .00056310  00000-0  87775-2 0  9990
2 34106  86.3554 248.1731 0011892 173.8182 359.8824 14.72584701803193
1 34106U 97051DR  24117.82263492  .00058414  00000-0  91091-2 0  9991
2 34106  86.3552 248.3000 0011870 174.8223 312.9946 14.72555001803023
1 34106U 97051DR  24117.40172705  .00043972  00000-0  68792-2 0  9996
2 34106  86.3551 248.4891 0011869 176.4875 241.5118 14.72501392802964
1 34106U 97051DR  24116.87026833  .00046425  00000-0  72683-2 0  9996
2 34106  86.3549 248.7280 0011817 178.2624 304.3596 14.72455423802883
1 34106U 97051DR  24116.87026833  .00046425  00000-0  72683-2 0  9996
2 34106  86.3549 248.7280 0011817 178.2624 304.3596 14.72455423803019
1 34106U 97051DR  24116.45262892  .00039825  00000-0  62462-2 0  9997
2 34106  86.3549 248.9156 0011771 179.2708 250.9903 14.72415832802822
1 34106U 97051DR  24115.85263490  .00048495  00000-0  76064-2 0  9991
2 34106  86.3546 249.1859 0011847 181.1346 310.8781 14.72362609802739
1 34106U 97051DR  24115.85263490  .00048495  00000-0  76064-2 0  9991
2 34106  86.3546 249.1859 0011847 181.1346 310.8781 14.72362609802863
1 34106U 97051DR  24115.43201019  .00046716  00000-0  73364-2 0  9998
2 34106  86.3544 249.3746 0011788 182.3187 241.6616 14.72319677802672
1 34106U 97051DR  24114.89971906  .00044603  00000-0  70158-2 0  9997
2 34106  86.3544 249.6151 0011828 184.1367 300.4113 14.72261759802594
1 34106U 97051DR  24114.89971906  .00044603  00000-0  70158-2 0  9997
2 34106  86.3544 249.6151 0011828 184.1367 300.4113 14.72261759802729
1 34106U 97051DR  24114.41410265  .00046530  00000-0  73257-2 0  9995
2 34106  86.3545 249.8322 0011903 185.3685 247.0701 14.72209851802524
1 34106U 97051DR  24113.87990581  .00047501  00000-0  74871-2 0  9990
2 34106  86.3540 250.0734 0011811 187.7912 295.3316 14.72154463802444
1 34106U 97051DR  24113.87990581  .00047501  00000-0  74871-2 0  9990
2 34106  86.3540 250.0734 0011811 187.7912 295.3316 14.72154463802578
1 34106U 97051DR  24113.39095867  .00057058  00000-0  89926-2 0  9995
2 34106  86.3538 250.2930 0011656 188.7029 224.8609 14.72102715802375
1 34106U 97051DR  24112.65710792  .00059592  00000-0  94079-2 0  9994
2 34106  86.3538 250.6225 0011946 190.9583 296.1744 14.72010722802264
1 34106U 97051DR  24112.65710792  .00059592  00000-0  94079-2 0  9994
2 34106  86.3538 250.6225 0011946 190.9583 296.1744 14.72010722802398
1 34106U 97051DR  24112.44141459  .00038366  00000-0  60794-2 0  9992
2 34106  86.3540 250.7187 0012041 192.0121 232.8640 14.71974877802231
1 34106U 97051DR  24111.90938674  .00037291  00000-0  59174-2 0  9991
2 34106  86.3539 250.9585 0012038 193.0257 294.4600 14.71919807802287
1 34106U 97051DR  24111.90938674  .00037291  00000-0  59174-2 0  9991
2 34106  86.3539 250.9585 0012038 193.0257 294.4600 14.71919807802153
1 34106U 97051DR  24111.42038625  .00044236  00000-0  70220-2 0  9997
2 34106  86.3537 251.1777 0011940 194.8793 223.1669 14.71864560802083
1 34106U 97051DR  24111.42038625  .00044236  00000-0  70220-2 0  9997
2 34106  86.3537 251.1777 0011940 194.8793 223.1669 14.71864560802218
1 34106U 97051DR  24110.39967175  .00048488  00000-0  77193-2 0  9992
2 34106  86.3535 251.6359 0011989 198.1947 215.1609 14.71712702801931
1 34106U 97051DR  24110.39967175  .00048488  00000-0  77193-2 0  9992
2 34106  86.3535 251.6359 0011989 198.1947 215.1609 14.71712702802066
1 34106U 97051DR  24109.86891469  .00046843  00000-0  74674-2 0  9998
2 34106  86.3534 251.8745 0012059 199.8582 283.3461 14.71663146801854
1 34106U 97051DR  24109.44950774  .00044174  00000-0  70510-2 0  9997
2 34106  86.3534 252.0631 0012083 200.9771 221.6976 14.71622930801797
1 34106U 97051DR  24108.91652958  .00047649  00000-0  76102-2 0  9994
2 34106  86.3533 252.3026 0012088 202.6336 278.2973 14.71575948801845
1 34106U 97051DR  24108.91652958  .00047649  00000-0  76102-2 0  9994
2 34106  86.3533 252.3026 0012088 202.6336 278.2973 14.71575948801711
1 34106U 97051DR  24108.42789083  .00061218  00000-0  97671-2 0  9992
2 34106  86.3534 252.5217 0012132 204.1593 209.8594 14.71538474801642
1 34106U 97051DR  24107.89746900  .00057655  00000-0  92171-2 0  9993
2 34106  86.3532 252.7600 0012117 206.0381 279.9511 14.71473220801562
1 34106U 97051DR  24107.89746900  .00057655  00000-0  92171-2 0  9993
2 34106  86.3532 252.7600 0012117 206.0381 279.9511 14.71473220801696
1 34106U 97051DR  24107.40767664  .00045905  00000-0  73608-2 0  9999
2 34106  86.3534 252.9801 0012136 207.8765 205.2787 14.71412802801493
1 34106U 97051DR  24106.65188072  .00037030  00000-0  59538-2 0  9991
2 34106  86.3538 253.3197 0012024 210.2482 162.1033 14.71347135801514
1 34106U 97051DR  24106.45703288  .00032979  00000-0  53072-2 0  9995
2 34106  86.3540 253.4070 0011975 210.8228 210.1288 14.71331795801359
1 34106U 97051DR  24105.92598564  .00031992  00000-0  51532-2 0  9998
2 34106  86.3541 253.6449 0012003 212.3476 277.6256 14.71294668801278
1 34106U 97051DR  24105.85597696  .00031769  00000-0  51180-2 0  9996
2 34106  86.3541 253.6764 0012006 212.6559 266.7484 14.71290315801396
1 34106U 97051DR  24104.90612453  .00026574  00000-0  42891-2 0  9997
2 34106  86.3543 254.1027 0012026 215.9727 275.7919 14.71236140801121
1 34106U 97051DR  24104.48607786  .00023429  00000-0  37850-2 0  9998
2 34106  86.3543 254.2912 0011976 217.0399 211.4381 14.71210110801068
1 34106U 97051DR  24104.48607786  .00023429  00000-0  37850-2 0  9998
2 34106  86.3543 254.2912 0011976 217.0399 211.4381 14.71210110801192
1 34106U 97051DR  24103.46428475  .00017711  00000-0  28660-2 0  9997
2 34106  86.3543 254.7498 0011936 220.6816 199.6385 14.71160869800911
1 34106U 97051DR  24103.46428475  .00017711  00000-0  28660-2 0  9997
2 34106  86.3543 254.7498 0011936 220.6816 199.6385 14.71160869801046
1 34106U 97051DR  24102.93287341  .00019240  00000-0  31147-2 0  9996
2 34106  86.3543 254.9883 0011873 222.6617 265.0645 14.71137852800836
1 34106U 97051DR  24102.44252309  .00020014  00000-0  32413-2 0  9996
2 34106  86.3543 255.2084 0011844 224.5184 187.9776 14.71118430800895
1 34106U 97051DR  24101.91136965  .00019371  00000-0  31389-2 0  9991
2 34106  86.3542 255.4468 0011804 226.4055 254.9460 14.71096343800686
1 34106U 97051DR  24101.41633868  .00020586  00000-0  33368-2 0  9999
2 34106  86.3540 255.6690 0011764 228.2638 153.1607 14.71078570800613
1 34106U 97051DR  24101.41633868  .00020586  00000-0  33368-2 0  9999
2 34106  86.3540 255.6690 0011764 228.2638 153.1607 14.71078570800747
1 34106U 97051DR  24100.96049527  .00019726  00000-0  31989-2 0  9992
2 34106  86.3538 255.8736 0011733 229.9285 258.9967 14.71060190800549
1 34106U 97051DR  24100.40441237  .00016112  00000-0  26151-2 0  9996
2 34106  86.3532 256.1232 0011689 231.8938 194.0643 14.71034820800468
1 34106U 97051DR  24100.22124160  .00016410  00000-0  26639-2 0  9991
2 34106  86.3533 256.2054 0011664 232.4947 304.0763 14.71028377800569
1 34106U 97051DR  24099.93925976  .00017716  00000-0  28762-2 0  9999
2 34106  86.3528 256.3319 0011628 233.5500 250.7079 14.71020117800397
1 34106U 97051DR  24099.44969984  .00018804  00000-0  30537-2 0  9994
2 34106  86.3526 256.5515 0011580 235.3809 178.0384 14.71004453800323
1 34106U 97051DR  24099.20032321  .00018602  00000-0  30216-2 0  9994
2 34106  86.3524 256.6637 0011559 236.2722 297.4121 14.70995280800418
1 34106U 97051DR  24098.91837166  .00016191  00000-0  26310-2 0  9992
2 34106  86.3525 256.7902 0011515 237.3813 244.1866 14.70983392800247
1 34106U 97051DR  24098.42331552  .00016982  00000-0  27604-2 0  9991
2 34106  86.3524 257.0125 0011581 239.1653 142.5425 14.70968428800179
1 34106U 97051DR  24097.96746815  .00017368  00000-0  28241-2 0  9998
2 34106  86.3521 257.2169 0011514 240.8796 248.4857 14.70952902800107
1 34106U 97051DR  24097.40287813  .00018148  00000-0  29522-2 0  9995
2 34106  86.3520 257.4703 0011444 243.0274 138.5642 14.70932843800024
1 34106U 97051DR  24096.87938882  .00018437  00000-0  30005-2 0  9993
2 34106  86.3519 257.7053 0011392 244.9484 246.4091 14.70914052800072
1 34106U 97051DR  24096.45645826  .00017082  00000-0  27812-2 0  9997
2 34106  86.3523 257.8952 0011387 246.5865 166.7060 14.70897612799889
1 34106U 97051DR  24095.93271001  .00016262  00000-0  26489-2 0  9997
2 34106  86.3523 258.1301 0011349 248.6179 273.1355 14.70880031799809
